TELSTAR 12V             
1 41036U 15068A   26201.82924100 -.00000119  00000+0  00000+0 0  9991
2 41036   0.0169  77.5322 0002326  37.0519 107.5281  1.00271425 38968
ELEKTRO-L 2             
1 41105U 15074A   26201.82932766 -.00000122  00000+0  00000+0 0  9996
2 41105   6.7766  70.1096 0000803 228.6874 283.8681  1.00272327 38849
COSMOS 2513             
1 41121U 15075A   26201.84808429 -.00000139  00000+0  00000+0 0  9993
2 41121   0.0581 102.9930 0002468 346.5499 234.6356  1.00273474 38883
EXPRESS-AMU1            
1 41191U 15082A   26201.83930367  .00000000  00000+0  00000+0 0  9990
2 41191   0.0234  59.2005 0002545  62.6497 155.0060  1.00268742 38602
GAOFEN-4                
1 41194U 15083A   26201.28282259 -.00000337  00000+0  00000+0 0  9997
2 41194   0.4407  83.8785 0004167 121.8602 299.8332  1.00270897 38868
BELINTERSAT-1           
1 41238U 16001A   26201.48592905  .00000105  00000+0  00000+0 0  9993
2 41238   0.0390 242.4497 0001604 194.6138  87.6731  1.00275220 38571
IRNSS-1E                
1 41241U 16003A   26201.59020082 -.00000317  00000+0  00000+0 0  9999
2 41241  33.3040  59.2648 0019305 176.2872  27.0964  1.00275464 38415
EUTELSAT 9B             
1 41310U 16005A   26201.62013211  .00000061  00000+0  00000+0 0  9993
2 41310   0.0498  69.4800 0001261  41.9710  59.1677  1.00273076 38452
SES-9                   
1 41380U 16013A   26201.59939582 -.00000346  00000+0  00000+0 0  9990
2 41380   0.0172 329.4513 0002308 136.6189 156.3850  1.00271745 37771
EUTELSAT 65 WEST A      
1 41382U 16014A   26201.81927427 -.00000277  00000+0  00000+0 0  9996
2 41382   0.0863 299.2343 0002336 174.5872  54.5171  1.00272524 37867
IRNSS-1F                
1 41384U 16015A   26201.84489259  .00000154  00000+0  00000+0 0  9991
2 41384   5.4307  96.0065 0017800 179.6587 359.5363  1.00269245 38000
BEIDOU-2 IGSO-6         
1 41434U 16021A   26177.11016981 -.00000145  00000+0  00000+0 0  9995
2 41434  60.2385  37.9495 0057558 231.0163 137.2672  1.00258926 37578
IRNSS-1G                
1 41469U 16027A   26201.57891936 -.00000338  00000+0  00000+0 0  9992
2 41469   5.2757  96.7017 0005917  13.1561 166.5437  1.00268271 37516
JCSAT-2B                
1 41471U 16028A   26201.79136750 -.00000166  00000+0  00000+0 0  9995
2 41471   0.0177  65.3359 0001065  47.5249 264.5856  1.00270728 37461
THAICOM 8               
1 41552U 16031A   26201.84773763 -.00000121  00000+0  00000+0 0  9997
2 41552   0.0613  37.7075 0003062  39.2584 245.3213  1.00272042 37053
INTELSAT 31 (IS-31)     
1 41581U 16035A   26201.81338093 -.00000151  00000+0  00000+0 0  9996
2 41581   0.0314 260.0992 0001014  53.5948 182.6577  1.00271225 37025
BEIDOU-2 G7             
1 41586U 16037A   26201.85406432 -.00000354  00000+0  00000+0 0  9995
2 41586   1.8018  69.5526 0006062   0.9708 286.1174  1.00270866  7225
ABS-2A (MONGOLSAT-1)    
1 41588U 16038A   26201.76899962 -.00000084  00000+0  00000+0 0  9992
2 41588   0.0104  46.6087 0001808  22.9554 220.5111  1.00270970 37040
EUTELSAT 117 WEST B     
1 41589U 16038B   26201.66647273 -.00000012  00000+0  00000+0 0  9999
2 41589   0.0056 161.4813 0000168   8.5099 251.3833  1.00270889 36997
BRISAT                  
1 41591U 16039A   26201.79003108 -.00000197  00000+0  00000+0 0  9994
2 41591   0.0114  21.3867 0002088  94.9114 257.1613  1.00271086 36943
ECHOSTAR 18             
1 41592U 16039B   26201.46356896 -.00000283  00000+0  00000+0 0  9990
2 41592   0.0191  63.4026 0001670  58.6483 281.6976  1.00272974 36957
MUOS-5                  
1 41622U 16041A   26201.66846608 -.00000150  00000+0  00000+0 0  9997
2 41622   2.1329 302.3332 0199817 260.5053 231.1424  1.00272885 37422
TIANTONG-1 1            
1 41725U 16048A   26201.85224431 -.00000320  00000+0  00000+0 0  9992
2 41725   3.9132  43.6716 0004934  57.2289 245.9181  1.00272890 36603
JCSAT-16                
1 41729U 16050A   26201.86065102 -.00000251  00000+0  00000+0 0  9991
2 41729   0.0195  62.7127 0001051  56.4506 273.2429  1.00270777 36401
USA 270                 
1 41744U 16052A   26201.42942394 -.00000355  00000+0  00000+0 0  9994
2 41744   4.2794  76.7594 0009649 103.0391  39.0344  1.00264644 28461
USA 271                 
1 41745U 16052B   26195.12317037 -.00000300  00000+0  00000+0 0  9994
2 41745   4.2370  76.9135 0011085 165.9764 191.3847  1.00268559 28181
INTELSAT 36 (IS-36)     
1 41747U 16053A   26201.84574427 -.00000024  00000+0  00000+0 0  9995
2 41747   0.0094  24.9134 0002449 324.3167 322.3424  1.00271703 36297
INSAT-3DR               
1 41752U 16054A   26201.77559410 -.00000077  00000+0  00000+0 0  9997
2 41752   0.0836  89.1161 0010345 180.3820  22.2441  1.00271487 36159
GSAT-18                 
1 41793U 16060A   26201.77550742 -.00000077  00000+0  00000+0 0  9998
2 41793   0.0488  91.7106 0005398 349.2874 210.6934  1.00272106 35868
SKY MUSTER 2 (NBN1B)    
1 41794U 16060B   26201.60739126  .00000000  00000+0  00000+0 0  9991
2 41794   0.0159  49.5171 0001780  68.8060 183.5232  1.00270478 35857
HIMAWARI-9              
1 41836U 16064A   26201.60739126 -.00000276  00000+0  00000+0 0  9998
2 41836   0.0199 292.3424 0001703 228.4234 137.0075  1.00273013 35542
SHIJIAN-17 (SJ-17)      
1 41838U 16065A   26201.79778086  .00000018  00000+0  00000+0 0  9992
2 41838   5.8361  72.1969 0002108  41.8203 297.8793  0.99868641 35534
