OBJECT_NAME,OBJECT_ID,EPOCH,MEAN_MOTION,ECCENTRICITY,INCLINATION,RA_OF_ASC_NODE,ARG_OF_PERICENTER,MEAN_ANOMALY,EPHEMERIS_TYPE,CLASSIFICATION_TYPE,NORAD_CAT_ID,ELEMENT_SET_NO,REV_AT_EPOCH,BSTAR,MEAN_MOTION_DOT,MEAN_MOTION_DDOT
TELSTAR 12V,2015-068A,2026-07-20T19:54:06.422400,1.00271425,.0002326,0.0169,77.5322,37.0519,107.5281,0,U,41036,999,3896,0,-.119E-5,0
ELEKTRO-L 2,2015-074A,2026-07-20T19:54:13.909824,1.00272327,.0000803,6.7766,70.1096,228.6874,283.8681,0,U,41105,999,3884,0,-.122E-5,0
COSMOS 2513,2015-075A,2026-07-20T20:21:14.482656,1.00273474,.0002468,0.0581,102.9930,346.5499,234.6356,0,U,41121,999,3888,0,-.139E-5,0
EXPRESS-AMU1,2015-082A,2026-07-20T20:08:35.837088,1.00268742,.0002545,0.0234,59.2005,62.6497,155.0060,0,U,41191,999,3860,0,0,0
GAOFEN-4,2015-083A,2026-07-20T06:47:15.871776,1.00270897,.00041678,0.4407,83.8785,121.8602,299.8332,0,U,41194,999,3886,0,-.337E-5,0
BELINTERSAT-1,2016-001A,2026-07-20T11:39:44.269920,1.00275220,.00016049,0.0390,242.4497,194.6138,87.6731,0,U,41238,999,3857,0,.105E-5,0
IRNSS-1E,2016-003A,2026-07-20T14:09:53.350848,1.00275464,.0019305,33.3040,59.2648,176.2872,27.0964,0,U,41241,999,3841,0,-.317E-5,0
EUTELSAT 9B,2016-005A,2026-07-20T14:52:59.414304,1.00273076,.0001261,0.0498,69.4800,41.9710,59.1677,0,U,41310,999,3845,0,.61E-6,0
SES-9,2016-013A,2026-07-20T14:23:07.798848,1.00271745,.0002308,0.0172,329.4513,136.6189,156.3850,0,U,41380,999,3777,0,-.346E-5,0
EUTELSAT 65 WEST A,2016-014A,2026-07-20T19:39:45.296928,1.00272524,.0002336,0.0863,299.2343,174.5872,54.5171,0,U,41382,999,3786,0,-.277E-5,0
IRNSS-1F,2016-015A,2026-07-20T20:16:38.719776,1.00269245,.00178,5.4307,96.0065,179.6587,359.5363,0,U,41384,999,3800,0,.154E-5,0
BEIDOU-2 IGSO-6,2016-021A,2026-06-26T02:38:38.671584,1.00258926,.0057558,60.2385,37.9495,231.0163,137.2672,0,U,41434,999,3757,0,-.145E-5,0
IRNSS-1G,2016-027A,2026-07-20T13:53:38.632704,1.00268271,.0005917,5.2757,96.7017,13.1561,166.5437,0,U,41469,999,3751,0,-.338E-5,0
JCSAT-2B,2016-028A,2026-07-20T18:59:34.152000,1.00270728,.0001065,0.0177,65.3359,47.5249,264.5856,0,U,41471,999,3746,0,-.166E-5,0
THAICOM 8,2016-031A,2026-07-20T20:20:44.531232,1.00272042,.0003062,0.0613,37.7075,39.2584,245.3213,0,U,41552,999,3705,0,-.121E-5,0
INTELSAT 31 (IS-31),2016-035A,2026-07-20T19:31:16.112352,1.00271225,.0001014,0.0314,260.0992,53.5948,182.6577,0,U,41581,999,3702,0,-.151E-5,0
BEIDOU-2 G7,2016-037A,2026-07-20T20:29:51.157248,1.00270866,.0006062,1.8018,69.5526,0.9708,286.1174,0,U,41586,999,722,0,-.354E-5,0
ABS-2A (MONGOLSAT-1),2016-038A,2026-07-20T18:27:21.567168,1.00270970,.0001808,0.0104,46.6087,22.9554,220.5111,0,U,41588,999,3704,0,-.84E-6,0
EUTELSAT 117 WEST B,2016-038B,2026-07-20T15:59:43.243872,1.00270889,.0000168,0.0056,161.4813,8.5099,251.3833,0,U,41589,999,3699,0,-.12E-6,0
BRISAT,2016-039A,2026-07-20T18:57:38.685312,1.00271086,.0002088,0.0114,21.3867,94.9114,257.1613,0,U,41591,999,3694,0,-.197E-5,0
ECHOSTAR 18,2016-039B,2026-07-20T11:07:32.358144,1.00272974,.00016708,0.0191,63.4026,58.6483,281.6976,0,U,41592,999,3695,0,-.283E-5,0
MUOS-5,2016-041A,2026-07-20T16:02:35.469312,1.00272885,.0199817,2.1329,302.3332,260.5053,231.1424,0,U,41622,999,3742,0,-.15E-5,0
TIANTONG-1 1,2016-048A,2026-07-20T20:27:13.908384,1.00272890,.0004934,3.9132,43.6716,57.2289,245.9181,0,U,41725,999,3660,0,-.32E-5,0
JCSAT-16,2016-050A,2026-07-20T20:39:20.248128,1.00270777,.0001051,0.0195,62.7127,56.4506,273.2429,0,U,41729,999,3640,0,-.251E-5,0
USA 270,2016-052A,2026-07-20T10:18:22.228416,1.00264644,.0009649,4.2794,76.7594,103.0391,39.0344,0,U,41744,999,2846,0,-.355E-5,0
USA 271,2016-052B,2026-07-14T02:57:21.919968,1.00268559,.0011085,4.2370,76.9135,165.9764,191.3847,0,U,41745,999,2818,0,-.3E-5,0
INTELSAT 36 (IS-36),2016-053A,2026-07-20T20:17:52.304928,1.00271703,.0002449,0.0094,24.9134,324.3167,322.3424,0,U,41747,999,3629,0,-.24E-6,0
INSAT-3DR,2016-054A,2026-07-20T18:36:51.330240,1.00271487,.0010345,0.0836,89.1161,180.3820,22.2441,0,U,41752,999,3615,0,-.77E-6,0
GSAT-18,2016-060A,2026-07-20T18:36:43.841088,1.00272106,.0005398,0.0488,91.7106,349.2874,210.6934,0,U,41793,999,3586,0,-.77E-6,0
SKY MUSTER 2 (NBN1B),2016-060B,2026-07-20T14:34:38.604864,1.00270478,.000178,0.0159,49.5171,68.8060,183.5232,0,U,41794,999,3585,0,0,0
HIMAWARI-9,2016-064A,2026-07-20T14:34:38.604864,1.00273013,.0001703,0.0199,292.3424,228.4234,137.0075,0,U,41836,999,3554,0,-.276E-5,0
SHIJIAN-17 (SJ-17),2016-065A,2026-07-20T19:08:48.266304,0.99868641,.0002108,5.8361,72.1969,41.8203,297.8793,0,U,41838,999,3553,0,.18E-6,0
